NORAD_CAT_ID,OBJECT_NAME,OBJECT_TYPE,EPOCH,MEAN_MOTION,ECCENTRICITY,INCLINATION,RA_OF_ASC_NODE,ARG_OF_PERICENTER,MEAN_ANOMALY,BSTAR,MEAN_MOTION_DOT,MEAN_MOTION_DDOT,TLE_LINE0,TLE_LINE1,TLE_LINE2,SEMIMAJOR_AXIS,PERIOD,APOGEE,PERIGEE,DECAYED
55772.0,STARLINK-5835,PAYLOAD,2023-11-18 21:37:44,14.98331373,0.0002707,69.9988,186.8114,270.2528,89.8321,4.9423e-05,4.97e-06,0.0,0 STARLINK-5835,1 55772U 23028AH  23322.90121280  .00000497  00000-0  49423-4 0  9992,2 55772  69.9988 186.8114 0002707 270.2528  89.8321 14.98331373 40443,6950.189,96.107,573.935,570.172,0.0
55772.0,STARLINK-5835,PAYLOAD,2023-11-19 08:50:41,14.98329639,0.0002687,69.999,185.6331,270.5429,89.5422,2.067e-05,1.54e-06,0.0,0 STARLINK-5835,1 55772U 23028AH  23323.36853448  .00000154  00000-0  20670-4 0  9994,2 55772  69.9990 185.6331 0002687 270.5429  89.5422 14.98329639 40513,6950.194,96.107,573.927,570.191,0.0
55772.0,STARLINK-5835,PAYLOAD,2023-11-19 21:39:45,14.98331884,0.0002686,69.9992,184.2865,270.4515,89.6336,1.6478e-05,1.04e-06,0.0,0 STARLINK-5835,1 55772U 23028AH  23323.90261266  .00000104  00000-0  16478-4 0  9991,2 55772  69.9992 184.2865 0002686 270.4515  89.6336 14.98331884 40594,6950.187,96.107,573.919,570.185,0.0
55772.0,STARLINK-5835,PAYLOAD,2023-11-20 00:52:01,14.98332369,0.0002692,69.9991,183.9498,270.5994,89.4857,2.0994e-05,1.58e-06,0.0,0 STARLINK-5835,1 55772U 23028AH  23324.03613204  .00000158  00000-0  20994-4 0  9996,2 55772  69.9991 183.9498 0002692 270.5994  89.4857 14.98332369 40618,6950.186,96.107,573.922,570.18,0.0
55772.0,STARLINK-5835,PAYLOAD,2023-11-20 20:05:38,14.98333805,0.0002672,69.9992,181.93,270.893,89.1923,1.4756e-05,8.3e-07,0.0,0 STARLINK-5835,1 55772U 23028AH  23324.83725007  .00000083  00000-0  14756-4 0  9995,2 55772  69.9992 181.9300 0002672 270.8930  89.1923 14.98333805 40730,6950.181,96.107,573.903,570.189,0.0
55772.0,STARLINK-5835,PAYLOAD,2023-11-20 21:41:46,14.98335222,0.0002677,69.9991,181.7616,271.0243,89.061,2.0112e-05,1.47e-06,0.0,0 STARLINK-5835,1 55772U 23028AH  23324.90400876  .00000147  00000-0  20112-4 0  9991,2 55772  69.9991 181.7616 0002677 271.0243  89.0610 14.98335222 40740,6950.177,96.107,573.902,570.181,0.0
55772.0,STARLINK-5835,PAYLOAD,2023-11-21 13:43:07,14.98329715,0.0002605,69.9991,180.0786,271.6168,88.4693,-2.7853e-05,-4.25e-06,0.0,0 STARLINK-5835,1 55772U 23028AH  23325.57161269 -.00000425  00000-0 -27853-4 0  9995,2 55772  69.9991 180.0786 0002605 271.6168  88.4693 14.98329715 40848,6950.194,96.107,573.869,570.248,0.0
55772.0,STARLINK-5835,PAYLOAD,2023-11-21 18:31:31,14.9832972,0.0002623,69.9991,179.5736,271.3439,88.7419,-2.6137e-05,-4.05e-06,0.0,0 STARLINK-5835,1 55772U 23028AH  23325.77189247 -.00000405  00000-0 -26137-4 0  9995,2 55772  69.9991 179.5736 0002623 271.3439  88.7419 14.98329720 40872,6950.194,96.107,573.882,570.236,0.0
55772.0,STARLINK-5835,PAYLOAD,2023-11-22 00:56:03,14.98332255,0.0002585,69.9991,178.9004,271.4259,88.6604,1.6415e-05,1.03e-06,0.0,0 STARLINK-5835,1 55772U 23028AH  23326.03892950  .00000103  00000-0  16415-4 0  9998,2 55772  69.9991 178.9004 0002585 271.4259  88.6604 14.98332255 40918,6950.186,96.107,573.848,570.254,0.0
55772.0,STARLINK-5835,PAYLOAD,2023-11-22 20:09:40,14.98333963,0.0002554,69.999,176.8807,270.049,90.0376,-6.1548e-07,-1e-06,0.0,0 STARLINK-5835,1 55772U 23028AH  23326.84004753 -.00000100  00000-0 -61548-6 0  9991,2 55772  69.9990 176.8807 0002554 270.0490  90.0376 14.98333963 41037,6950.181,96.107,573.821,570.271,0.0
55772.0,STARLINK-5835,PAYLOAD,2023-11-22 23:21:56,14.98336213,0.0002538,69.999,176.5441,270.044,90.0428,2.4666e-05,2.01e-06,0.0,0 STARLINK-5835,1 55772U 23028AH  23326.97356495  .00000201  00000-0  24666-4 0  9996,2 55772  69.9990 176.5441 0002538 270.0440  90.0428 14.98336213 41056,6950.174,96.107,573.803,570.275,0.0
55772.0,STARLINK-5835,PAYLOAD,2023-11-23 20:11:41,14.98322176,0.0002356,69.9993,174.3562,261.9166,98.1726,-5.248e-05,-7.19e-06,0.0,0 STARLINK-5835,1 55772U 23028AH  23327.84145638 -.00000719  00000-0 -52480-4 0  9999,2 55772  69.9993 174.3562 0002356 261.9166  98.1726 14.98322176 41188,6950.217,96.108,573.72,570.445,0.0
55772.0,STARLINK-5835,PAYLOAD,2023-11-23 21:47:50,14.98320414,0.0002396,69.9992,174.1878,263.367,96.7217,-7.3386e-05,-9.68e-06,0.0,0 STARLINK-5835,1 55772U 23028AH  23327.90821848 -.00000968  00000-0 -73386-4 0  9994,2 55772  69.9992 174.1878 0002396 263.3670  96.7217 14.98320414 41198,6950.223,96.108,573.753,570.422,0.0
55772.0,STARLINK-5835,PAYLOAD,2023-11-23 23:23:58,14.98297835,0.0002315,69.9989,174.019,268.9405,91.1489,0.00031384,3.65e-05,0.0,0 STARLINK-5835,1 55772U 23028AH  23327.97498485  .00003650  00000-0  31384-3 0  9998,2 55772  69.9989 174.0190 0002315 268.9405  91.1489 14.98297835 41200,6950.292,96.109,573.766,570.548,0.0
55772.0,STARLINK-5835,PAYLOAD,2023-11-24 13:49:10,14.98327135,0.0002601,69.9986,172.5032,265.7578,94.3284,-5.1803e-05,-7.11e-06,0.0,0 STARLINK-5835,1 55772U 23028AH  23328.57581571 -.00000711  00000-0 -51803-4 0  9990,2 55772  69.9986 172.5032 0002601 265.7578  94.3284 14.98327135 41293,6950.202,96.107,573.874,570.259,0.0
55772.0,STARLINK-5835,PAYLOAD,2023-11-24 18:37:34,14.983292,0.0002493,69.9984,171.9974,260.7982,99.2895,-3.7289e-05,-5.38e-06,0.0,0 STARLINK-5835,1 55772U 23028AH  23328.77609415 -.00000538  00000-0 -37289-4 0  9999,2 55772  69.9984 171.9974 0002493 260.7982  99.2895 14.98329200 41323,6950.195,96.107,573.793,570.328,0.0
55772.0,STARLINK-5835,PAYLOAD,2023-11-24 21:49:50,14.98331285,0.0002659,69.9984,171.6609,267.2196,92.8658,-9.7794e-06,-2.1e-06,0.0,0 STARLINK-5835,1 55772U 23028AH  23328.90961223 -.00000210  00000-0 -97794-5 0  9997,2 55772  69.9984 171.6609 0002659 267.2196  92.8658 14.98331285 41342,6950.189,96.107,573.902,570.206,0.0
55772.0,STARLINK-5835,PAYLOAD,2023-11-25 13:51:10,14.98330329,0.0002776,69.9983,169.9775,270.2173,89.8668,0.00013816,1.556e-05,0.0,0 STARLINK-5835,1 55772U 23028AH  23329.57720873  .00001556  00000-0  13816-3 0  9998,2 55772  69.9983 169.9775 0002776 270.2173  89.8668 14.98330329 41440,6950.192,96.107,573.986,570.128,0.0
55772.0,STARLINK-5835,PAYLOAD,2023-11-25 21:51:50,14.98336886,0.0002666,69.9982,169.1354,271.4253,88.6601,0.00019634,2.251e-05,0.0,0 STARLINK-5835,1 55772U 23028AH  23329.91100295  .00002251  00000-0  19634-3 0  9993,2 55772  69.9982 169.1354 0002666 271.4253  88.6601 14.98336886 41497,6950.172,96.107,573.89,570.184,0.0
55772.0,STARLINK-5835,PAYLOAD,2023-11-25 23:27:58,14.98338161,0.0002692,69.9982,168.9674,270.1177,89.9673,0.00021945,2.527e-05,0.0,0 STARLINK-5835,1 55772U 23028AH  23329.97776117  .00002527  00000-0  21945-3 0  9995,2 55772  69.9982 168.9674 0002692 270.1177  89.9673 14.98338161 41502,6950.168,96.106,573.904,570.162,0.0
55772.0,STARLINK-5835,PAYLOAD,2023-11-26 12:17:03,14.98334553,0.0002287,69.999,167.6221,266.2335,93.8563,5.7596e-05,5.94e-06,0.0,0 STARLINK-5835,1 55772U 23028AH  23330.51184705  .00000594  00000-0  57596-4 0  9997,2 55772  69.9990 167.6221 0002287 266.2335  93.8563 14.98334553 41588,6950.179,96.107,573.633,570.454,0.0
55772.0,STARLINK-5835,PAYLOAD,2023-11-26 13:53:11,14.98334031,0.0002246,69.999,167.4528,260.9118,99.1787,4.979e-05,5.01e-06,0.0,0 STARLINK-5835,1 55772U 23028AH  23330.57860698  .00000501  00000-0  49790-4 0  9990,2 55772  69.9990 167.4528 0002246 260.9118  99.1787 14.98334031 41590,6950.18,96.107,573.606,570.484,0.0
55772.0,STARLINK-5835,PAYLOAD,2023-11-26 21:53:52,14.98327828,0.0002446,69.9992,166.6125,255.1515,104.9373,-1.3347e-05,-2.52e-06,0.0,0 STARLINK-5835,1 55772U 23028AH  23330.91241188 -.00000252  00000-0 -13347-4 0  9999,2 55772  69.9992 166.6125 0002446 255.1515 104.9373 14.98327828 41643,6950.2,96.107,573.765,570.365,0.0
55772.0,STARLINK-5835,PAYLOAD,2023-11-26 23:30:00,14.9832753,0.0002453,69.999,166.4439,258.5616,101.5268,-1.7157e-05,-2.98e-06,0.0,0 STARLINK-5835,1 55772U 23028AH  23330.97917236 -.00000298  00000-0 -17157-4 0  9992,2 55772  69.9990 166.4439 0002453 258.5616 101.5268 14.98327530 41651,6950.201,96.107,573.77,570.361,0.0
55772.0,STARLINK-5835,PAYLOAD,2023-11-27 13:55:12,14.98334049,0.000251,69.9988,164.9292,268.0997,91.9875,-7.1323e-05,-9.44e-06,0.0,0 STARLINK-5835,1 55772U 23028AH  23331.58000939 -.00000944  00000-0 -71323-4 0  9996,2 55772  69.9988 164.9292 0002510 268.0997  91.9875 14.98334049 41749,6950.18,96.107,573.79,570.301,0.0
55772.0,STARLINK-5835,PAYLOAD,2023-11-27 18:43:36,14.98334371,0.0002278,69.9996,164.4253,254.7697,105.3211,-3.4342e-05,-5.03e-06,0.0,0 STARLINK-5835,1 55772U 23028AH  23331.78028738 -.00000503  00000-0 -34342-4 0  9996,2 55772  69.9996 164.4253 0002278 254.7697 105.3211 14.98334371 41775,6950.179,96.107,573.628,570.461,0.0
55772.0,STARLINK-5835,PAYLOAD,2023-11-27 21:55:52,14.98349448,0.0002136,69.9996,164.0883,264.1851,95.9065,-0.0003127,-3.824e-05,0.0,0 STARLINK-5835,1 55772U 23028AH  23331.91380477 -.00003824  00000-0 -31270-3 0  9997,2 55772  69.9996 164.0883 0002136 264.1851  95.9065 14.98349448 41794,6950.133,96.106,573.482,570.513,0.0
55772.0,STARLINK-5835,PAYLOAD,2023-11-28 12:21:05,14.98329265,0.0002305,69.999,162.5722,264.9006,95.189,3.0162e-05,2.67e-06,0.0,0 STARLINK-5835,1 55772U 23028AH  23332.51464761  .00000267  00000-0  30162-4 0  9999,2 55772  69.9990 162.5722 0002305 264.9006  95.1890 14.98329265 41884,6950.195,96.107,573.662,570.458,0.0
55772.0,STARLINK-5835,PAYLOAD,2023-11-28 13:57:13,14.98328652,0.0002519,69.999,162.4046,267.8181,92.269,4.9538e-05,4.98e-06,0.0,0 STARLINK-5835,1 55772U 23028AH  23332.58140730  .00000498  00000-0  49538-4 0  9996,2 55772  69.9990 162.4046 0002519 267.8181  92.2690 14.98328652 41891,6950.197,96.107,573.813,570.311,0.0
55772.0,STARLINK-5835,PAYLOAD,2023-11-28 21:57:53,14.98328171,0.000256,69.9993,161.5635,268.4768,91.6098,4.9494e-05,4.98e-06,0.0,0 STARLINK-5835,1 55772U 23028AH  23332.91520780  .00000498  00000-0  49494-4 0  9991,2 55772  69.9993 161.5635 0002560 268.4768  91.6098 14.98328171 41949,6950.199,96.107,573.843,570.284,0.0
